{
    "links": {
        "self": "http://www.neowsapp.com/rest/v1/neo/3756790?api_key=iIulBulltgU6a56xZRHN4H3l9WmuAYTsLGpBGhQ2"
    },
    "id": "3756790",
    "neo_reference_id": "3756790",
    "name": "(2016 PP)",
    "designation": "2016 PP",
    "nasa_jpl_url": "http://ssd.jpl.nasa.gov/sbdb.cgi?sstr=3756790",
    "absolute_magnitude_h": 24.5,
    "estimated_diameter": {
        "kilometers": {
            "estimated_diameter_min": 0.0334622374,
            "estimated_diameter_max": 0.0748238376
        },
        "meters": {
            "estimated_diameter_min": 33.4622374455,
            "estimated_diameter_max": 74.8238376074
        },
        "miles": {
            "estimated_diameter_min": 0.0207924639,
            "estimated_diameter_max": 0.0464933628
        },
        "feet": {
            "estimated_diameter_min": 109.7842471007,
            "estimated_diameter_max": 245.4850393757
        }
    },
    "is_potentially_hazardous_asteroid": false,
    "close_approach_data": [
        {
            "close_approach_date": "2016-07-26",
            "close_approach_date_full": "2016-Jul-26 01:34",
            "epoch_date_close_approach": 1469496840000,
            "relative_velocity": {
                "kilometers_per_second": "6.9575370985",
                "kilometers_per_hour": "25047.1335547799",
                "miles_per_hour": "15563.3147357464"
            },
            "miss_distance": {
                "astronomical": "0.1328500417",
                "lunar": "51.6786662213",
                "kilometers": "19874083.267731179",
                "miles": "12349182.7033571102"
            },
            "orbiting_body": "Earth"
        }
    ],
    "orbital_data": {
        "orbit_id": "8",
        "orbit_determination_date": "2017-04-06 08:24:46",
        "first_observation_date": "2016-08-02",
        "last_observation_date": "2016-09-06",
        "data_arc_in_days": 35,
        "observations_used": 30,
        "orbit_uncertainty": "7",
        "minimum_orbit_intersection": ".127256",
        "jupiter_tisserand_invariant": "3.524",
        "epoch_osculation": "2459000.5",
        "eccentricity": ".4762051539641445",
        "semi_major_axis": "2.162040855535022",
        "inclination": "9.772798467707885",
        "ascending_node_longitude": "317.9391492217518",
        "orbital_period": "1161.165895013163",
        "perihelion_distance": "1.132465857048196",
        "perihelion_argument": "339.6061660487381",
        "aphelion_distance": "3.191615854021848",
        "perihelion_time": "2458748.990069168846",
        "mean_anomaly": "77.97643341754286",
        "mean_motion": ".310033218807136",
        "equinox": "J2000",
        "orbit_class": {
            "orbit_class_type": "AMO",
            "orbit_class_description": "Near-Earth asteroid orbits similar to that of 1221 Amor",
            "orbit_class_range": "1.017 AU < q (perihelion) < 1.3 AU"
        }
    },
    "is_sentry_object": false
}